[{"OBJECT_NAME":"ALOS (DAICHI)","OBJECT_ID":"2006-002A","EPOCH":"2026-03-12T20:07:42.462624","MEAN_MOTION":14.69822493,"ECCENTRICITY":8.189e-5,"INCLINATION":98.1221,"RA_OF_ASC_NODE":27.7783,"ARG_OF_PERICENTER":61.2913,"MEAN_ANOMALY":298.8374,"EPHEMERIS_TYPE":0,"CLASSIFICATION_TYPE":"U","NORAD_CAT_ID":28931,"ELEMENT_SET_NO":999,"REV_AT_EPOCH":7394,"BSTAR":0.00030646389,"MEAN_MOTION_DOT":1.781e-5,"MEAN_MOTION_DDOT":0},{"OBJECT_NAME":"H-2A R/B","OBJECT_ID":"2006-002B","EPOCH":"2026-03-12T09:07:58.249056","MEAN_MOTION":15.16485542,"ECCENTRICITY":0.0051937,"INCLINATION":98.2411,"RA_OF_ASC_NODE":218.6356,"ARG_OF_PERICENTER":231.7636,"MEAN_ANOMALY":127.8914,"EPHEMERIS_TYPE":0,"CLASSIFICATION_TYPE":"U","NORAD_CAT_ID":28932,"ELEMENT_SET_NO":999,"REV_AT_EPOCH":9484,"BSTAR":0.00053302,"MEAN_MOTION_DOT":0.00010669,"MEAN_MOTION_DDOT":0},{"OBJECT_NAME":"RESURS-DK 1","OBJECT_ID":"2006-021A","EPOCH":"2026-03-12T18:36:44.607456","MEAN_MOTION":15.12769237,"ECCENTRICITY":0.00015697,"INCLINATION":69.9325,"RA_OF_ASC_NODE":229.0399,"ARG_OF_PERICENTER":159.9148,"MEAN_ANOMALY":200.2081,"EPHEMERIS_TYPE":0,"CLASSIFICATION_TYPE":"U","NORAD_CAT_ID":29228,"ELEMENT_SET_NO":999,"REV_AT_EPOCH":8799,"BSTAR":0.00022705782,"MEAN_MOTION_DOT":3.886e-5,"MEAN_MOTION_DDOT":0},{"OBJECT_NAME":"CZ-4B R/B","OBJECT_ID":"2006-046C","EPOCH":"2026-03-12T17:01:46.199136","MEAN_MOTION":15.16939644,"ECCENTRICITY":0.00316965,"INCLINATION":97.5594,"RA_OF_ASC_NODE":116.6107,"ARG_OF_PERICENTER":256.3443,"MEAN_ANOMALY":103.426,"EPHEMERIS_TYPE":0,"CLASSIFICATION_TYPE":"U","NORAD_CAT_ID":29507,"ELEMENT_SET_NO":999,"REV_AT_EPOCH":6050,"BSTAR":0.0002513459,"MEAN_MOTION_DOT":4.951e-5,"MEAN_MOTION_DDOT":0},{"OBJECT_NAME":"CZ-2C R/B","OBJECT_ID":"2007-010B","EPOCH":"2026-03-12T18:07:33.606048","MEAN_MOTION":14.20247491,"ECCENTRICITY":0.00578684,"INCLINATION":98.398,"RA_OF_ASC_NODE":184.8801,"ARG_OF_PERICENTER":285.5049,"MEAN_ANOMALY":73.9743,"EPHEMERIS_TYPE":0,"CLASSIFICATION_TYPE":"U","NORAD_CAT_ID":31114,"ELEMENT_SET_NO":999,"REV_AT_EPOCH":98015,"BSTAR":9.1173014e-5,"MEAN_MOTION_DOT":1.56e-6,"MEAN_MOTION_DDOT":0},{"OBJECT_NAME":"COSMO-SKYMED 1","OBJECT_ID":"2007-023A","EPOCH":"2026-03-13T00:10:53.153760","MEAN_MOTION":14.96566492,"ECCENTRICITY":0.0001528,"INCLINATION":97.8881,"RA_OF_ASC_NODE":263.0659,"ARG_OF_PERICENTER":97.1485,"MEAN_ANOMALY":262.991,"EPHEMERIS_TYPE":0,"CLASSIFICATION_TYPE":"U","NORAD_CAT_ID":31598,"ELEMENT_SET_NO":999,"REV_AT_EPOCH":1540,"BSTAR":0.00044158,"MEAN_MOTION_DOT":4.967e-5,"MEAN_MOTION_DDOT":0},{"OBJECT_NAME":"COSMOS 2428","OBJECT_ID":"2007-029A","EPOCH":"2026-03-12T22:23:21.034176","MEAN_MOTION":14.12946783,"ECCENTRICITY":0.00092468,"INCLINATION":70.9437,"RA_OF_ASC_NODE":196.536,"ARG_OF_PERICENTER":273.8435,"MEAN_ANOMALY":86.1629,"EPHEMERIS_TYPE":0,"CLASSIFICATION_TYPE":"U","NORAD_CAT_ID":31792,"ELEMENT_SET_NO":999,"REV_AT_EPOCH":96455,"BSTAR":3.9246663e-5,"MEAN_MOTION_DOT":2.5e-7,"MEAN_MOTION_DDOT":0},{"OBJECT_NAME":"SL-16 R/B","OBJECT_ID":"2007-029B","EPOCH":"2026-03-12T16:41:19.065984","MEAN_MOTION":14.14834317,"ECCENTRICITY":0.00022743,"INCLINATION":70.9758,"RA_OF_ASC_NODE":166.0673,"ARG_OF_PERICENTER":276.0061,"MEAN_ANOMALY":251.2586,"EPHEMERIS_TYPE":0,"CLASSIFICATION_TYPE":"U","NORAD_CAT_ID":31793,"ELEMENT_SET_NO":999,"REV_AT_EPOCH":96579,"BSTAR":0.000112757,"MEAN_MOTION_DOT":1.7e-6,"MEAN_MOTION_DDOT":0},{"OBJECT_NAME":"KORONAS-FOTON","OBJECT_ID":"2009-003A","EPOCH":"2026-03-12T14:48:36.423072","MEAN_MOTION":15.43384574,"ECCENTRICITY":0.00114498,"INCLINATION":82.4279,"RA_OF_ASC_NODE":272.8339,"ARG_OF_PERICENTER":140.0753,"MEAN_ANOMALY":220.1339,"EPHEMERIS_TYPE":0,"CLASSIFICATION_TYPE":"U","NORAD_CAT_ID":33504,"ELEMENT_SET_NO":999,"REV_AT_EPOCH":94619,"BSTAR":0.00023168521,"MEAN_MOTION_DOT":0.00010403,"MEAN_MOTION_DDOT":0},{"OBJECT_NAME":"CZ-2C R/B","OBJECT_ID":"2011-030B","EPOCH":"2026-03-12T18:53:02.314176","MEAN_MOTION":14.81236481,"ECCENTRICITY":0.00521174,"INCLINATION":97.8543,"RA_OF_ASC_NODE":28.9878,"ARG_OF_PERICENTER":341.9542,"MEAN_ANOMALY":78.8297,"EPHEMERIS_TYPE":0,"CLASSIFICATION_TYPE":"U","NORAD_CAT_ID":37731,"ELEMENT_SET_NO":999,"REV_AT_EPOCH":79055,"BSTAR":0.00025846811,"MEAN_MOTION_DOT":2.006e-5,"MEAN_MOTION_DDOT":0},{"OBJECT_NAME":"H-2A R/B","OBJECT_ID":"2012-025E","EPOCH":"2026-03-12T20:58:26.217984","MEAN_MOTION":14.95197851,"ECCENTRICITY":0.0043206,"INCLINATION":98.4737,"RA_OF_ASC_NODE":39.1754,"ARG_OF_PERICENTER":303.6931,"MEAN_ANOMALY":56.0171,"EPHEMERIS_TYPE":0,"CLASSIFICATION_TYPE":"U","NORAD_CAT_ID":38341,"ELEMENT_SET_NO":999,"REV_AT_EPOCH":74869,"BSTAR":0.0003257656,"MEAN_MOTION_DOT":3.576e-5,"MEAN_MOTION_DDOT":0},{"OBJECT_NAME":"SHIJIAN-16 (SJ-16)","OBJECT_ID":"2013-057A","EPOCH":"2026-03-12T23:32:35.274048","MEAN_MOTION":14.92365263,"ECCENTRICITY":0.00153922,"INCLINATION":74.9728,"RA_OF_ASC_NODE":178.858,"ARG_OF_PERICENTER":104.1103,"MEAN_ANOMALY":256.1797,"EPHEMERIS_TYPE":0,"CLASSIFICATION_TYPE":"U","NORAD_CAT_ID":39358,"ELEMENT_SET_NO":999,"REV_AT_EPOCH":67199,"BSTAR":0.0003322616,"MEAN_MOTION_DOT":3.379e-5,"MEAN_MOTION_DDOT":0},{"OBJECT_NAME":"SL-4 R/B","OBJECT_ID":"2014-021B","EPOCH":"2026-03-12T22:33:42.562080","MEAN_MOTION":15.39300004,"ECCENTRICITY":0.00972305,"INCLINATION":51.608,"RA_OF_ASC_NODE":321.4203,"ARG_OF_PERICENTER":114.828,"MEAN_ANOMALY":246.2854,"EPHEMERIS_TYPE":0,"CLASSIFICATION_TYPE":"U","NORAD_CAT_ID":39679,"ELEMENT_SET_NO":999,"REV_AT_EPOCH":65677,"BSTAR":0.00034766001,"MEAN_MOTION_DOT":0.0001583,"MEAN_MOTION_DDOT":0},{"OBJECT_NAME":"ALOS-2","OBJECT_ID":"2014-029A","EPOCH":"2026-03-12T23:09:45.412416","MEAN_MOTION":14.79517193,"ECCENTRICITY":0.00015157,"INCLINATION":97.9187,"RA_OF_ASC_NODE":170.5143,"ARG_OF_PERICENTER":97.3162,"MEAN_ANOMALY":262.8222,"EPHEMERIS_TYPE":0,"CLASSIFICATION_TYPE":"U","NORAD_CAT_ID":39766,"ELEMENT_SET_NO":999,"REV_AT_EPOCH":63735,"BSTAR":0.00016650436,"MEAN_MOTION_DOT":1.194e-5,"MEAN_MOTION_DDOT":0},{"OBJECT_NAME":"YAOGAN-29","OBJECT_ID":"2015-069A","EPOCH":"2026-03-13T00:47:43.066176","MEAN_MOTION":14.8299956,"ECCENTRICITY":0.0001655,"INCLINATION":98.0145,"RA_OF_ASC_NODE":100.4716,"ARG_OF_PERICENTER":30.8872,"MEAN_ANOMALY":329.2439,"EPHEMERIS_TYPE":0,"CLASSIFICATION_TYPE":"U","NORAD_CAT_ID":41038,"ELEMENT_SET_NO":999,"REV_AT_EPOCH":55637,"BSTAR":8.0414e-5,"MEAN_MOTION_DOT":5.99e-6,"MEAN_MOTION_DDOT":0},{"OBJECT_NAME":"ASTRO-H (HITOMI)","OBJECT_ID":"2016-012A","EPOCH":"2026-03-12T22:32:27.927168","MEAN_MOTION":15.1003113,"ECCENTRICITY":0.00097299,"INCLINATION":31.0006,"RA_OF_ASC_NODE":335.5784,"ARG_OF_PERICENTER":3.8567,"MEAN_ANOMALY":356.2145,"EPHEMERIS_TYPE":0,"CLASSIFICATION_TYPE":"U","NORAD_CAT_ID":41337,"ELEMENT_SET_NO":999,"REV_AT_EPOCH":55272,"BSTAR":0.00021388375,"MEAN_MOTION_DOT":3.662e-5,"MEAN_MOTION_DDOT":0},{"OBJECT_NAME":"HXMT (HUIYAN)","OBJECT_ID":"2017-034A","EPOCH":"2026-03-13T00:04:09.429024","MEAN_MOTION":15.17517246,"ECCENTRICITY":0.0033225,"INCLINATION":43.0161,"RA_OF_ASC_NODE":358.253,"ARG_OF_PERICENTER":256.1397,"MEAN_ANOMALY":103.5753,"EPHEMERIS_TYPE":0,"CLASSIFICATION_TYPE":"U","NORAD_CAT_ID":42758,"ELEMENT_SET_NO":999,"REV_AT_EPOCH":48304,"BSTAR":0.00034893,"MEAN_MOTION_DOT":6.99e-5,"MEAN_MOTION_DDOT":0}]
