ALOS (DAICHI)           
1 28931U 06002A   26071.83868591  .00001781  00000+0  30646-3 0  9993
2 28931  98.1221  27.7783 0000818  61.2913 298.8374 14.69822493 73943
H-2A R/B                
1 28932U 06002B   26071.38053529  .00010669  00000+0  53302-3 0  9990
2 28932  98.2411 218.6356 0051937 231.7636 127.8914 15.16485542 94843
RESURS-DK 1             
1 29228U 06021A   26071.77551629  .00003886  00000+0  22706-3 0  9994
2 29228  69.9325 229.0399 0001569 159.9148 200.2081 15.12769237 87990
CZ-4B R/B               
1 29507U 06046C   26071.70956249  .00004951  00000+0  25135-3 0  9994
2 29507  97.5594 116.6107 0031696 256.3443 103.4260 15.16939644 60503
CZ-2C R/B               
1 31114U 07010B   26071.75525007  .00000156  00000+0  91173-4 0  9991
2 31114  98.3980 184.8801 0057868 285.5049  73.9743 14.20247491980156
COSMO-SKYMED 1          
1 31598U 07023A   26072.00755965  .00004967  00000+0  44158-3 0  9992
2 31598  97.8881 263.0659 0001528  97.1485 262.9910 14.96566492 15401
COSMOS 2428             
1 31792U 07029A   26071.93288234  .00000025  00000+0  39247-4 0  9990
2 31792  70.9437 196.5360 0009246 273.8435  86.1629 14.12946783964553
SL-16 R/B               
1 31793U 07029B   26071.69535956  .00000170  00000+0  11276-3 0  9992
2 31793  70.9758 166.0673 0002274 276.0061 251.2586 14.14834317965798
KORONAS-FOTON           
1 33504U 09003A   26071.61708823  .00010403  00000+0  23169-3 0  9999
2 33504  82.4279 272.8339 0011449 140.0753 220.1339 15.43384574946195
CZ-2C R/B               
1 37731U 11030B   26071.78683234  .00002006  00000+0  25847-3 0  9999
2 37731  97.8543  28.9878 0052117 341.9542  78.8297 14.81236481790550
H-2A R/B                
1 38341U 12025E   26071.87391456  .00003576  00000+0  32577-3 0  9995
2 38341  98.4737  39.1754 0043206 303.6931  56.0171 14.95197851748692
SHIJIAN-16 (SJ-16)      
1 39358U 13057A   26071.98096382  .00003379  00000+0  33226-3 0  9995
2 39358  74.9728 178.8580 0015392 104.1103 256.1797 14.92365263671994
SL-4 R/B                
1 39679U 14021B   26071.94007595  .00015830  00000+0  34766-3 0  9992
2 39679  51.6080 321.4203 0097230 114.8280 246.2854 15.39300004656773
ALOS-2                  
1 39766U 14029A   26071.96510894  .00001194  00000+0  16650-3 0  9990
2 39766  97.9187 170.5143 0001515  97.3162 262.8222 14.79517193637350
YAOGAN-29               
1 41038U 15069A   26072.03313734  .00000599  00000+0  80414-4 0  9991
2 41038  98.0145 100.4716 0001655  30.8872 329.2439 14.82999560556370
ASTRO-H (HITOMI)        
1 41337U 16012A   26071.93921212  .00003662  00000+0  21388-3 0  9994
2 41337  31.0006 335.5784 0009729   3.8567 356.2145 15.10031130552723
HXMT (HUIYAN)           
1 42758U 17034A   26072.00288691  .00006990  00000+0  34893-3 0  9995
2 42758  43.0161 358.2530 0033225 256.1397 103.5753 15.17517246483049
